{
  "norad_id": 65490,
  "name": "2025-197C",
  "history": [
    {
      "epoch": "2026-03-28T20:59:38.660064Z",
      "apogee_km": 503.5286985279945,
      "perigee_km": 485.32012197399035,
      "latitude_deg": 9.979644177745118e-06,
      "longitude_deg": 134.6056832825453,
      "height_km": 493.67890589258946,
      "semi_major_axis_km": 6872.561410250992,
      "eccentricity": 0.00132473,
      "inclination_deg": 97.4114,
      "raan_deg": 275.8057,
      "arg_perigee_deg": 295.0015,
      "mean_anomaly_deg": 64.9846,
      "mean_motion_rev_day": 15.23788944
    },
    {
      "epoch": "2026-03-29T04:52:27.153120Z",
      "apogee_km": 503.4982958699229,
      "perigee_km": 485.31354729940995,
      "latitude_deg": -1.1948011456414655e-05,
      "longitude_deg": 16.40450604811523,
      "height_km": 493.8455367172416,
      "semi_major_axis_km": 6872.542921584666,
      "eccentricity": 0.001323,
      "inclination_deg": 97.4114,
      "raan_deg": 276.1302,
      "arg_perigee_deg": 293.7558,
      "mean_anomaly_deg": 66.2291,
      "mean_motion_rev_day": 15.23795093
    },
    {
      "epoch": "2026-03-30T04:30:52.105248Z",
      "apogee_km": 503.43290409684687,
      "perigee_km": 485.297744962877,
      "latitude_deg": -6.731125783465393e-05,
      "longitude_deg": 21.803175468301923,
      "height_km": 494.38931157264005,
      "semi_major_axis_km": 6872.502324529862,
      "eccentricity": 0.0013194,
      "inclination_deg": 97.4112,
      "raan_deg": 277.1037,
      "arg_perigee_deg": 289.8467,
      "mean_anomaly_deg": 70.1347,
      "mean_motion_rev_day": 15.23808595
    },
    {
      "epoch": "2026-03-30T06:05:25.739232Z",
      "apogee_km": 503.42835488456785,
      "perigee_km": 485.29636492335885,
      "latitude_deg": 3.788403098838123e-05,
      "longitude_deg": -1.8368040715242335,
      "height_km": 494.42548698549734,
      "semi_major_axis_km": 6872.4993599039635,
      "eccentricity": 0.00131917,
      "inclination_deg": 97.4112,
      "raan_deg": 277.1686,
      "arg_perigee_deg": 289.5876,
      "mean_anomaly_deg": 70.3937,
      "mean_motion_rev_day": 15.23809581
    },
    {
      "epoch": "2026-03-30T13:58:13.841760Z",
      "apogee_km": 503.4110464412315,
      "perigee_km": 485.2822592630455,
      "latitude_deg": 8.959913950839199e-05,
      "longitude_deg": -120.03645885182024,
      "height_km": 494.59876668972277,
      "semi_major_axis_km": 6872.483652852138,
      "eccentricity": 0.00131894,
      "inclination_deg": 97.411,
      "raan_deg": 277.493,
      "arg_perigee_deg": 288.3283,
      "mean_anomaly_deg": 71.652,
      "mean_motion_rev_day": 15.23814805
    },
    {
      "epoch": "2026-03-30T21:51:01.856160Z",
      "apogee_km": 503.38748083925293,
      "perigee_km": 485.2759142830737,
      "latitude_deg": 7.029032993097693e-05,
      "longitude_deg": 121.76436376039199,
      "height_km": 494.77815622054004,
      "semi_major_axis_km": 6872.468697561163,
      "eccentricity": 0.00131769,
      "inclination_deg": 97.411,
      "raan_deg": 277.8175,
      "arg_perigee_deg": 287.0558,
      "mean_anomaly_deg": 72.9236,
      "mean_motion_rev_day": 15.23819779
    },
    {
      "epoch": "2026-03-31T19:54:51.933600Z",
      "apogee_km": 503.3445225122223,
      "perigee_km": 485.2466585283455,
      "latitude_deg": 1.4084337244789658e-05,
      "longitude_deg": 150.80808369726756,
      "height_km": 495.28375025663127,
      "semi_major_axis_km": 6872.432590520283,
      "eccentricity": 0.0013167,
      "inclination_deg": 97.4108,
      "raan_deg": 278.726,
      "arg_perigee_deg": 283.5133,
      "mean_anomaly_deg": 76.4637,
      "mean_motion_rev_day": 15.23831788
    },
    {
      "epoch": "2026-04-01T19:33:14.927040Z",
      "apogee_km": 503.2982381466709,
      "perigee_km": 485.23481272042227,
      "latitude_deg": 6.847628776865748e-05,
      "longitude_deg": 156.21472308595796,
      "height_km": 495.85578179400807,
      "semi_major_axis_km": 6872.403525433547,
      "eccentricity": 0.0013142,
      "inclination_deg": 97.4108,
      "raan_deg": 279.6993,
      "arg_perigee_deg": 279.6468,
      "mean_anomaly_deg": 80.3285,
      "mean_motion_rev_day": 15.23841455
    },
    {
      "epoch": "2026-04-02T19:11:37.134240Z",
      "apogee_km": 503.24436209751457,
      "perigee_km": 485.18519609240957,
      "latitude_deg": -1.4232274506772314e-05,
      "longitude_deg": 161.62456472135506,
      "height_km": 496.40490703340225,
      "semi_major_axis_km": 6872.351779094962,
      "eccentricity": 0.0013139,
      "inclination_deg": 97.4107,
      "raan_deg": 280.6725,
      "arg_perigee_deg": 275.8015,
      "mean_anomaly_deg": 84.1724,
      "mean_motion_rev_day": 15.23858666
    }
  ]
}